OBJECT_NAME,OBJECT_ID,EPOCH,MEAN_MOTION,ECCENTRICITY,INCLINATION,RA_OF_ASC_NODE,ARG_OF_PERICENTER,MEAN_ANOMALY,EPHEMERIS_TYPE,CLASSIFICATION_TYPE,NORAD_CAT_ID,ELEMENT_SET_NO,REV_AT_EPOCH,BSTAR,MEAN_MOTION_DOT,MEAN_MOTION_DDOT
ONEWEB-0524,2022-138AF,2026-06-03T07:22:25.167072,13.20770766,.00021267,87.9206,277.2012,126.5102,233.6227,0,U,54142,999,17747,.25203605E-3,.115E-5,0
ONEWEB-0525,2022-138AG,2026-06-03T23:15:47.746368,13.19724543,.000143,87.9168,307.5982,94.5041,265.6255,0,U,54143,999,17508,.4038E-5,.15E-6,0
ONEWEB-0526,2022-138AH,2026-06-03T11:19:21.244224,13.19729901,.00015119,87.9152,307.6974,79.8519,280.2784,0,U,54144,999,17499,.80426675E-3,.335E-5,0
ONEWEB-0529,2022-138AJ,2026-06-03T11:23:52.342368,13.19727181,.00015158,87.9162,307.7080,105.5586,254.5714,0,U,54145,999,17501,.42332645E-3,.182E-5,0
ONEWEB-0531,2022-138AK,2026-06-03T07:03:03.178656,13.20772767,.00025816,87.9184,277.2046,113.3751,246.7654,0,U,54146,999,17747,.24819139E-3,.114E-5,0
ONEWEB-0535,2022-138AL,2026-06-03T23:06:41.675040,13.19724184,.0002168,87.9167,307.5932,97.3434,262.7945,0,U,54147,999,17509,-.8311E-4,-.2E-6,0
ONEWEB-0536,2022-138AM,2026-06-03T06:43:37.855200,13.20770357,.00026657,87.9180,277.2305,122.2793,237.8599,0,U,54148,999,17746,.3199424E-3,.143E-5,0
ONEWEB-0527,2022-166A,2026-06-03T23:59:30.280128,13.21757390,.0001195,87.9257,246.6184,128.4331,231.6910,0,U,54642,999,16979,-.18668E-1,-.7683E-4,0
ONEWEB-0528,2022-166B,2026-06-03T15:02:50.578656,13.21826749,.0001727,87.9258,246.6969,99.3419,260.7910,0,U,54643,999,16975,-.12631E-3,-.39E-6,0
ONEWEB-0539,2022-166C,2026-06-03T06:53:33.917568,13.21826158,.00020897,87.9266,246.7362,94.0363,266.1010,0,U,54644,999,16970,-.20349968E-4,.5E-7,0
ONEWEB-0540,2022-166D,2026-06-03T07:03:26.870400,13.21826168,.00020827,87.9258,246.7659,95.8334,264.3037,0,U,54645,999,16969,.167543E-3,.82E-6,0
ONEWEB-0542,2022-166E,2026-06-03T07:08:05.720352,13.21826977,.0002175,87.9266,246.7320,92.8881,267.2502,0,U,54646,999,16970,.18558219E-3,.9E-6,0
ONEWEB-0545,2022-166F,2026-06-03T15:22:14.420352,13.21826310,.000237,87.9256,246.6765,89.9587,270.1818,0,U,54647,999,16971,.92222E-4,.51E-6,0
ONEWEB-0580,2022-166G,2026-06-03T07:29:53.268576,13.21826506,.00023615,87.9257,246.7419,93.0771,267.0633,0,U,54648,999,16971,-.65117824E-4,-.14E-6,0
ONEWEB-0582,2022-166H,2026-06-03T06:41:27.137184,13.21825265,.00023413,87.9255,246.7407,92.0485,268.0917,0,U,54649,999,16968,.18147912E-3,.88E-6,0
ONEWEB-0583,2022-166J,2026-06-03T06:58:24.375360,13.21826950,.0002102,87.9259,246.7625,95.7200,264.4174,0,U,54650,999,16969,.10965079E-3,.58E-6,0
ONEWEB-0584,2022-166K,2026-06-03T14:43:27.441120,13.21825036,.0002146,87.9256,246.6837,98.7521,261.3856,0,U,54651,999,16972,.17576E-3,.86E-6,0
ONEWEB-0585,2022-166L,2026-06-03T15:17:23.917632,13.21825524,.0001866,87.9260,246.6655,102.1482,257.9861,0,U,54652,999,16973,-.28971E-4,.1E-7,0
ONEWEB-0586,2022-166M,2026-06-03T06:31:43.417056,13.21826675,.00020604,87.9272,246.7649,108.9165,251.2192,0,U,54653,999,16968,.81078112E-3,.348E-5,0
ONEWEB-0587,2022-166N,2026-06-03T06:46:16.044096,13.21828146,.00018053,87.9269,246.7342,109.0685,251.0645,0,U,54654,999,16984,.19611096E-3,.94E-6,0
ONEWEB-0589,2022-166P,2026-06-03T15:31:53.676192,13.21828010,.0002743,87.9253,246.6754,87.7464,272.3984,0,U,54655,999,16975,-.27722E-4,.2E-7,0
ONEWEB-0590,2022-166Q,2026-06-03T07:03:03.219264,13.21826019,.00023982,87.9265,246.7346,107.5536,252.5860,0,U,54656,999,16969,.11613674E-3,.61E-6,0
ONEWEB-0591,2022-166R,2026-06-03T07:20:12.672672,13.21826037,.00020903,87.9255,246.7487,98.2467,261.8904,0,U,54657,999,16972,.76953779E-4,.45E-6,0
ONEWEB-0592,2022-166S,2026-06-03T07:25:03.145152,13.21826903,.00019909,87.9268,246.7244,99.1189,261.0170,0,U,54658,999,16960,-.11159948E-3,-.33E-6,0
ONEWEB-0593,2022-166T,2026-06-03T15:12:32.054976,13.21826477,.0002001,87.9260,246.6722,95.0778,265.0584,0,U,54659,999,16975,-.31981E-3,-.119E-5,0
ONEWEB-0594,2022-166U,2026-06-03T06:36:34.056288,13.21827968,.00019558,87.9256,246.7603,102.8891,257.2462,0,U,54660,999,16972,.13244895E-3,.68E-6,0
ONEWEB-0595,2022-166V,2026-06-03T06:02:41.134272,13.21826305,.0001914,87.9265,246.7440,106.1303,254.0041,0,U,54661,999,16969,.85579E-4,.48E-6,0
ONEWEB-0596,2022-166W,2026-06-03T07:15:21.788928,13.21826163,.00020305,87.9257,246.7467,102.2584,257.8778,0,U,54662,999,16970,.10716315E-3,.57E-6,0
ONEWEB-0597,2022-166X,2026-06-03T06:48:42.972480,13.21825651,.00022069,87.9269,246.7558,101.9364,258.2018,0,U,54663,999,16970,.80621421E-4,.46E-6,0
ONEWEB-0600,2022-166Y,2026-06-03T15:27:03.392064,13.21827764,.0001914,87.9256,246.6743,97.9581,262.1770,0,U,54664,999,16972,.78045E-4,.45E-6,0
