ONEWEB-0524             
1 54142U 22138AF  26154.30723573  .00000115  00000+0  25204-3 0  9992
2 54142  87.9206 277.2012 0002126 126.5102 233.6227 13.20770766177479
ONEWEB-0525             
1 54143U 22138AG  26154.96930262  .00000015  00000+0  40380-5 0  9993
2 54143  87.9168 307.5982 0001430  94.5041 265.6255 13.19724543175084
ONEWEB-0526             
1 54144U 22138AH  26154.47177366  .00000335  00000+0  80427-3 0  9997
2 54144  87.9152 307.6974 0001511  79.8519 280.2784 13.19729901174998
ONEWEB-0529             
1 54145U 22138AJ  26154.47491137  .00000182  00000+0  42333-3 0  9997
2 54145  87.9162 307.7080 0001515 105.5586 254.5714 13.19727181175013
ONEWEB-0531             
1 54146U 22138AK  26154.29378679  .00000114  00000+0  24819-3 0  9997
2 54146  87.9184 277.2046 0002581 113.3751 246.7654 13.20772767177476
ONEWEB-0535             
1 54147U 22138AL  26154.96298235 -.00000020  00000+0 -83110-4 0  9999
2 54147  87.9167 307.5932 0002168  97.3434 262.7945 13.19724184175094
ONEWEB-0536             
1 54148U 22138AM  26154.28029925  .00000143  00000+0  31994-3 0  9999
2 54148  87.9180 277.2305 0002665 122.2793 237.8599 13.20770357177461
ONEWEB-0527             
1 54642U 22166A   26154.99965602 -.00007683  00000+0 -18668-1 0  9997
2 54642  87.9257 246.6184 0001195 128.4331 231.6910 13.21757390169792
ONEWEB-0528             
1 54643U 22166B   26154.62697429 -.00000039  00000+0 -12631-3 0  9991
2 54643  87.9258 246.6969 0001727  99.3419 260.7910 13.21826749169753
ONEWEB-0539             
1 54644U 22166C   26154.28719812  .00000005  00000+0 -20350-4 0  9995
2 54644  87.9266 246.7362 0002089  94.0363 266.1010 13.21826158169703
ONEWEB-0540             
1 54645U 22166D   26154.29406100  .00000082  00000+0  16754-3 0  9996
2 54645  87.9258 246.7659 0002082  95.8334 264.3037 13.21826168169692
ONEWEB-0542             
1 54646U 22166E   26154.29728843  .00000090  00000+0  18558-3 0  9991
2 54646  87.9266 246.7320 0002175  92.8881 267.2502 13.21826977169703
ONEWEB-0545             
1 54647U 22166F   26154.64044468  .00000051  00000+0  92222-4 0  9993
2 54647  87.9256 246.6765 0002370  89.9587 270.1818 13.21826310169717
ONEWEB-0580             
1 54648U 22166G   26154.31242209 -.00000014  00000+0 -65118-4 0  9996
2 54648  87.9257 246.7419 0002361  93.0771 267.0633 13.21826506169714
ONEWEB-0582             
1 54649U 22166H   26154.27878631  .00000088  00000+0  18148-3 0  9995
2 54649  87.9255 246.7407 0002341  92.0485 268.0917 13.21825265169682
ONEWEB-0583             
1 54650U 22166J   26154.29055990  .00000058  00000+0  10965-3 0  9990
2 54650  87.9259 246.7625 0002102  95.7200 264.4174 13.21826950169698
ONEWEB-0584             
1 54651U 22166K   26154.61351205  .00000086  00000+0  17576-3 0  9991
2 54651  87.9256 246.6837 0002146  98.7521 261.3856 13.21825036169728
ONEWEB-0585             
1 54652U 22166L   26154.63708238  .00000001  00000+0 -28971-4 0  9996
2 54652  87.9260 246.6655 0001866 102.1482 257.9861 13.21825524169736
ONEWEB-0586             
1 54653U 22166M   26154.27203029  .00000348  00000+0  81078-3 0  9994
2 54653  87.9272 246.7649 0002060 108.9165 251.2192 13.21826675169689
ONEWEB-0587             
1 54654U 22166N   26154.28213014  .00000094  00000+0  19611-3 0  9993
2 54654  87.9269 246.7342 0001805 109.0685 251.0645 13.21828146169845
ONEWEB-0589             
1 54655U 22166P   26154.64714903  .00000002  00000+0 -27722-4 0  9990
2 54655  87.9253 246.6754 0002743  87.7464 272.3984 13.21828010169756
ONEWEB-0590             
1 54656U 22166Q   26154.29378726  .00000061  00000+0  11614-3 0  9997
2 54656  87.9265 246.7346 0002398 107.5536 252.5860 13.21826019169698
ONEWEB-0591             
1 54657U 22166R   26154.30570223  .00000045  00000+0  76954-4 0  9997
2 54657  87.9255 246.7487 0002090  98.2467 261.8904 13.21826037169728
ONEWEB-0592             
1 54658U 22166S   26154.30906418 -.00000033  00000+0 -11160-3 0  9993
2 54658  87.9268 246.7244 0001990  99.1189 261.0170 13.21826903169609
ONEWEB-0593             
1 54659U 22166T   26154.63370434 -.00000119  00000+0 -31981-3 0  9991
2 54659  87.9260 246.6722 0002001  95.0778 265.0584 13.21826477169750
ONEWEB-0594             
1 54660U 22166U   26154.27539417  .00000068  00000+0  13245-3 0  9995
2 54660  87.9256 246.7603 0001955 102.8891 257.2462 13.21827968169727
ONEWEB-0595             
1 54661U 22166V   26154.25186498  .00000048  00000+0  85579-4 0  9999
2 54661  87.9265 246.7440 0001914 106.1303 254.0041 13.21826305169695
ONEWEB-0596             
1 54662U 22166W   26154.30233552  .00000057  00000+0  10716-3 0  9990
2 54662  87.9257 246.7467 0002030 102.2584 257.8778 13.21826163169706
ONEWEB-0597             
1 54663U 22166X   26154.28383070  .00000046  00000+0  80621-4 0  9990
2 54663  87.9269 246.7558 0002206 101.9364 258.2018 13.21825651169701
ONEWEB-0600             
1 54664U 22166Y   26154.64378926  .00000045  00000+0  78045-4 0  9991
2 54664  87.9256 246.6743 0001914  97.9581 262.1770 13.21827764169721
